2024-205L               
1 61904U 24205L   26066.14074752  .00013606  00000+0  79283-3 0  9990
2 61904  97.4213 140.2188 0054772 346.2042  13.7688 15.10822925 72825
TRANSPORTER-13 OBJECT M 
1 63221U 25052M   26068.70428271  .00005606  00000+0  25482-3 0  9991
2 63221  97.4005 322.6064 0004913 116.6212 243.5528 15.21138155 54718
